*******************************************************************************
JPL/HORIZONS            3840 Mimistrobell (1980 TN4)       2023-Sep-04 11:25:49
Rec #:    3840 (+COV) Soln.date: 2023-Aug-23_14:03:40   # obs: 4219 (1928-2023)
 
IAU76/J2000 helio. ecliptic osc. elements (au, days, deg., period=Julian yrs):
 
  EPOCH=  2457611.5 ! 2016-Aug-11.00 (TDB)         Residual RMS= .25485
   EC= .08242978623923969  QR= 2.06406384821826    TP= 2457533.4677123614
   OM= 42.29382212553994   W=  167.6989580515638   IN= 3.91837764662658
   A= 2.249488722785009    MA= 22.7956868636388    ADIST= 2.434913597351757
   PER= 3.37391            N= .29213147            ANGMOM= .025712415
   DAN= 2.4299             DDN= 2.06768            L= 210.0206624
   B= .834182              MOID= 1.05829           TP= 2016-May-24.9677123614
 
Asteroid physical parameters (km, seconds, rotational period in hours):
   GM= n.a.                RAD= 2.587              ROTPER= n.a.
   H= 13.39                G= .150                 B-V= n.a.
                           ALBEDO= .279            STYP= n.a.

ASTEROID comments: 
1: soln ref.= JPL#118, OCC=0
2: source=ORB
*******************************************************************************


*******************************************************************************
Ephemeris / API_USER Mon Sep  4 11:25:49 2023 Pasadena, USA      / Horizons
*******************************************************************************
Target body name: 3840 Mimistrobell (1980 TN4)    {source: JPL#118}
Center body name: Solar System Barycenter (0)     {source: DE441}
Center-site name: BODY CENTER
*******************************************************************************
Start time      : A.D. 2023-Aug-12 00:00:00.0000 TDB
Stop  time      : A.D. 2023-Aug-13 00:00:00.0000 TDB
Step-size       : 2880 minutes
*******************************************************************************
Center geodetic : 0.0, 0.0, 0.0                   {E-lon(deg),Lat(deg),Alt(km)}
Center cylindric: 0.0, 0.0, 0.0                   {E-lon(deg),Dxy(km),Dz(km)}
Center radii    : (undefined)
Small perturbers: Yes                             {source: SB441-N16}
Output units    : KM-S
Calendar mode   : Mixed Julian/Gregorian
Output type     : GEOMETRIC cartesian states
Output format   : 2 (position and velocity)
Reference frame : Ecliptic of J2000.0
*******************************************************************************
Initial IAU76/J2000 heliocentric ecliptic osculating elements (au, days, deg.):
  EPOCH=  2457611.5 ! 2016-Aug-11.00 (TDB)         Residual RMS= .25485        
   EC= .08242978623923969  QR= 2.06406384821826    TP= 2457533.4677123614      
   OM= 42.29382212553994   W=  167.6989580515638   IN= 3.91837764662658        
  Equivalent ICRF heliocentric cartesian coordinates (au, au/d):
   X=-1.139547915039285E+00  Y=-1.583187478262041E+00  Z=-7.252931794395368E-01
  VX= 1.008814782513585E-02 VY=-6.184128774503436E-03 VZ=-3.579925572038298E-03
Asteroid physical parameters (km, seconds, rotational period in hours):        
   GM= n.a.                RAD= 2.587              ROTPER= n.a.                
   H= 13.39                G= .150                 B-V= n.a.                   
                           ALBEDO= .279            STYP= n.a.                  
*******************************************************************************
JDTDB
   X     Y     Z
   VX    VY    VZ
*******************************************************************************
$$SOE
2460168.500000000 = A.D. 2023-Aug-12 00:00:00.0000 TDB 
 X =-1.590137567712113E+07 Y =-3.195454226648694E+08 Z =-1.548248702135061E+07
 VX= 2.071091385571149E+01 VY=-2.311441223478225E+00 VZ=-1.069415137561673E+00
$$EOE
*******************************************************************************
 
TIME

  Barycentric Dynamical Time ("TDB" or T_eph) output was requested. This
continuous coordinate time is equivalent to the relativistic proper time
of a clock at rest in a reference frame co-moving with the solar system
barycenter but outside the system's gravity well. It is the independent
variable in the solar system relativistic equations of motion.

  TDB runs at a uniform rate of one SI second per second and is independent
of irregularities in Earth's rotation.
 
CALENDAR SYSTEM

  Mixed calendar mode was active such that calendar dates after AD 1582-Oct-15
(if any) are in the modern Gregorian system. Dates prior to 1582-Oct-5 (if any)
are in the Julian calendar system, which is automatically extended for dates
prior to its adoption on 45-Jan-1 BC.  The Julian calendar is useful for
matching historical dates. The Gregorian calendar more accurately corresponds
to the Earth's orbital motion and seasons. A "Gregorian-only" calendar mode is
available if such physical events are the primary interest.

REFERENCE FRAME AND COORDINATES

  Ecliptic at the standard reference epoch

    Reference epoch: J2000.0
    X-Y plane: adopted Earth orbital plane at the reference epoch
               Note: IAU76 obliquity of 84381.448 arcseconds wrt ICRF X-Y plane
    X-axis   : ICRF
    Z-axis   : perpendicular to the X-Y plane in the directional (+ or -) sense
               of Earth's north pole at the reference epoch.

  Symbol meaning:

    JDTDB    Julian Day Number, Barycentric Dynamical Time
      X      X-component of position vector (km)
      Y      Y-component of position vector (km)
      Z      Z-component of position vector (km)
      VX     X-component of velocity vector (km/sec)                           
      VY     Y-component of velocity vector (km/sec)                           
      VZ     Z-component of velocity vector (km/sec)                           

ABERRATIONS AND CORRECTIONS

 Geometric state vectors have NO corrections or aberrations applied.

Computations by ...

    Solar System Dynamics Group, Horizons On-Line Ephemeris System
    4800 Oak Grove Drive, Jet Propulsion Laboratory
    Pasadena, CA  91109   USA

    General site: https://ssd.jpl.nasa.gov/
    Mailing list: https://ssd.jpl.nasa.gov/email_list.html
    System news : https://ssd.jpl.nasa.gov/horizons/news.html
    User Guide  : https://ssd.jpl.nasa.gov/horizons/manual.html
    Connect     : browser        https://ssd.jpl.nasa.gov/horizons/app.html#/x
                  API            https://ssd-api.jpl.nasa.gov/doc/horizons.html
                  command-line   telnet ssd.jpl.nasa.gov 6775
                  e-mail/batch   https://ssd.jpl.nasa.gov/ftp/ssd/hrzn_batch.txt
                  scripts        https://ssd.jpl.nasa.gov/ftp/ssd/SCRIPTS
    Author      : Jon.D.Giorgini@jpl.nasa.gov
*******************************************************************************
